H1 CPF  2 gfz 2024 11 21  1 326  1 tandemx   
H2  1003001 6202    36605 2024 11 21  0  1 42 2024 11 23 23 59 42   120 1 1  0 0 0  1
H9
10 0 60636  79182.000000  0    3481368.729  -5943713.405    137019.879
10 0 60636  79302.000000  0    3287339.615  -5963624.125   1038234.685
10 0 60636  79422.000000  0    3036442.562  -5875393.956   1921168.278
10 0 60636  79542.000000  0    2734941.789  -5679605.760   2770271.139
10 0 60636  79662.000000  0    2389968.345  -5378857.729   3570592.680
10 0 60636  79782.000000  0    2009356.669  -4977728.160   4308049.706
10 0 60636  79902.000000  0    1601469.663  -4482700.904   4969678.061
10 0 60636  80022.000000  0    1175017.001  -3902053.149   5543861.194
10 0 60636  80142.000000  0     738869.488  -3245708.342   6020533.353
10 0 60636  80262.000000  0     301874.313  -2525057.670   6391350.259
10 0 60636  80382.000000  0    -127323.340  -1752756.640   6649828.073
10 0 60636  80502.000000  0    -540449.631   -942500.091   6791450.581
10 0 60636  80622.000000  0    -929760.296   -108777.762   6813744.565
10 0 60636  80742.000000  0   -1288184.929    733385.588   6716320.283
10 0 60636  80862.000000  0   -1609454.947   1568700.515   6500877.459
10 0 60636  80982.000000  0   -1888213.283   2381889.555   6171177.519
10 0 60636  81102.000000  0   -2120104.454   3157966.693   5732981.969
10 0 60636  81222.000000  0   -2301843.049   3882514.917   5193957.202
10 0 60636  81342.000000  0   -2431260.606   4541957.976   4563547.530
10 0 60636  81462.000000  0   -2507329.354   5123821.478   3852815.061
10 0 60636  81582.000000  0   -2530161.950   5616977.116   3074248.677
10 0 60636  81702.000000  0   -2500986.742   6011863.710   2241544.563
10 0 60636  81822.000000  0   -2422099.512   6300680.457   1369363.245
10 0 60636  81942.000000  0   -2296792.162   6477547.730    473066.583
10 0 60636  82062.000000  0   -2129260.183   6538630.886   -431559.817
10 0 60636  82182.000000  0   -1924491.627   6482224.222  -1328593.451
10 0 60636  82302.000000  0   -1688139.333   6308791.265  -2202266.988
10 0 60636  82422.000000  0   -1426379.233   6020956.464  -3037253.778
10 0 60636  82542.000000  0   -1145760.945   5623455.952  -3818938.856
10 0 60636  82662.000000  0    -853054.320   5123049.072  -4533675.236
10 0 60636  82782.000000  0    -555095.037   4528391.063  -5169018.746
10 0 60636  82902.000000  0    -258632.670   3849872.986  -5713938.238
10 0 60636  83022.000000  0      29815.677   3099430.641  -6158998.994
10 0 60636  83142.000000  0     304102.482   2290326.877  -6496515.030
10 0 60636  83262.000000  0     558574.632   1436914.484  -6720669.686
10 0 60636  83382.000000  0     788185.055    554382.816  -6827606.598
10 0 60636  83502.000000  0     988588.884   -341508.859  -6815488.681
10 0 60636  83622.000000  0    1156222.752  -1234707.434  -6684525.586
10 0 60636  83742.000000  0    1288366.237  -2109145.864  -6436968.860
10 0 60636  83862.000000  0    1383185.478  -2949024.001  -6077078.235
10 0 60636  83982.000000  0    1439758.385  -3739089.729  -5611058.176
10 0 60636  84102.000000  0    1458079.454  -4464916.218  -5046961.018
10 0 60636  84222.000000  0    1439045.940  -5113166.554  -4394557.948
10 0 60636  84342.000000  0    1384424.581  -5671844.447  -3665181.651
10 0 60636  84462.000000  0    1296798.204  -6130525.905  -2871538.219
10 0 60636  84582.000000  0    1179494.619  -6480564.736  -2027491.670
10 0 60636  84702.000000  0    1036498.934  -6715267.996  -1147823.990
10 0 60636  84822.000000  0     872349.872  -6830035.574   -247974.282
10 0 60636  84942.000000  0     692023.279  -6822459.126    656237.391
10 0 60636  85062.000000  0     500806.031  -6692378.498   1548895.153
10 0 60636  85182.000000  0     304163.100  -6441893.478   2414276.736
10 0 60636  85302.000000  0     107601.272  -6075328.786   3237140.717
10 0 60636  85422.000000  0     -83467.415  -5599152.150   4003002.488
10 0 60636  85542.000000  0    -263858.770  -5021851.859   4698392.511
10 0 60636  85662.000000  0    -428742.165  -4353776.032   5311095.244
10 0 60636  85782.000000  0    -573755.893  -3606937.258   5830362.637
10 0 60636  85902.000000  0    -695110.097  -2794786.541   6247100.014
10 0 60636  86022.000000  0    -789674.906  -1931962.577   6554018.148
10 0 60636  86142.000000  0    -855052.241  -1034024.700   6745753.542
10 0 60636  86262.000000  0    -889630.486   -117170.674   6818957.947
10 0 60636  86382.000000  0    -892621.110    802056.391   6772353.589
10 0 60637    102.000000  0    -864075.277   1707066.278   6606754.047
10 0 60637    222.000000  0    -804880.822   2581520.529   6325050.746
10 0 60637    342.000000  0    -716740.221   3409627.339   5932165.740
10 0 60637    462.000000  0    -602129.945   4176428.775   5434970.722
10 0 60637    582.000000  0    -464241.282   4868074.444   4842172.462
10 0 60637    702.000000  0    -306904.211   5472079.104   4164166.876
10 0 60637    822.000000  0    -134494.759   5977555.936   3412859.199
10 0 60637    942.000000  0      48170.449   6375421.488   2601460.382
10 0 60637   1062.000000  0     235951.521   6658574.044   1744252.817
10 0 60637   1182.000000  0     423513.264   6822027.152    856332.276
10 0 60637   1302.000000  0     605458.391   6863002.808    -46664.012
10 0 60637   1422.000000  0     776463.554   6780981.121   -948841.240
10 0 60637   1542.000000  0     931413.251   6577703.330  -1834335.810
10 0 60637   1662.000000  0    1065528.389   6257130.251  -2687601.564
10 0 60637   1782.000000  0    1174487.361   5825357.104  -3493688.297
10 0 60637   1902.000000  0    1254536.761   5290486.950  -4238506.533
10 0 60637   2022.000000  0    1302588.795   4662466.328  -4909073.129
10 0 60637   2142.000000  0    1316303.199   3952887.943  -5493732.429
10 0 60637   2262.000000  0    1294151.702   3174767.153  -5982350.518
10 0 60637   2382.000000  0    1235464.254   2342295.730  -6366481.043
10 0 60637   2502.000000  0    1140456.053   1470579.328  -6639498.700
10 0 60637   2622.000000  0    1010235.757    575364.890  -6796703.100
10 0 60637   2742.000000  0     846794.451   -327240.397  -6835391.558
10 0 60637   2862.000000  0     652975.538  -1221053.534  -6754899.683
10 0 60637   2982.000000  0     432426.063  -2090098.134  -6556609.905
10 0 60637   3102.000000  0     189530.916  -2918881.477  -6243931.224
10 0 60637   3222.000000  0     -70671.029  -3692666.966  -5822248.858
10 0 60637   3342.000000  0    -342586.365  -4397734.532  -5298839.911
10 0 60637   3462.000000  0    -620180.621  -5021625.425  -4682759.353
10 0 60637   3582.000000  0    -897105.211  -5553368.451  -3984694.980
10 0 60637   3702.000000  0   -1166835.150  -5983682.237  -3216791.784
10 0 60637   3822.000000  0   -1422814.427  -6305148.422  -2392447.977
10 0 60637   3942.000000  0   -1658606.241  -6512352.370  -1526085.578
10 0 60637   4062.000000  0   -1868044.307  -6601986.984   -632897.722
10 0 60637   4182.000000  0   -2045381.377  -6572915.337    271422.030
10 0 60637   4302.000000  0   -2185431.550  -6426189.882   1170962.353
10 0 60637   4422.000000  0   -2283702.343  -6165027.444   2049882.773
10 0 60637   4542.000000  0   -2336512.827  -5794740.239   2892701.928
10 0 60637   4662.000000  0   -2341094.316  -5322624.427   3684578.531
10 0 60637   4782.000000  0   -2295671.309  -4757809.734   4411578.366
10 0 60637   4902.000000  0   -2199521.180  -4111075.100   5060922.148
10 0 60637   5022.000000  0   -2053011.907  -3394634.541   5621211.069
10 0 60637   5142.000000  0   -1857615.702  -2621896.825   6082624.401
10 0 60637   5262.000000  0   -1615898.365  -1807207.977   6437086.011
10 0 60637   5382.000000  0   -1331486.037   -965581.052   6678400.270
10 0 60637   5502.000000  0   -1009010.501   -112415.883   6802354.108
10 0 60637   5622.000000  0    -654034.028    736782.627   6806784.784
10 0 60637   5742.000000  0    -272953.446   1566685.461   6691616.149
10 0 60637   5862.000000  0     127115.209   2362416.031   6458859.990
10 0 60637   5982.000000  0     538469.193   3109816.713   6112582.626
10 0 60637   6102.000000  0     952965.935   3795701.574   5658838.437
10 0 60637   6222.000000  0    1362182.554   4408092.524   5105569.669
10 0 60637   6342.000000  0    1757585.494   4936434.160   4462473.469
10 0 60637   6462.000000  0    2130707.147   5371782.798   3740836.447
10 0 60637   6582.000000  0    2473326.421   5706965.124   2953341.371
10 0 60637   6702.000000  0    2777648.072   5936707.506   2113844.769
10 0 60637   6822.000000  0    3036477.448   6057725.730   1237128.133
10 0 60637   6942.000000  0    3243384.690   6068773.691    338631.320
10 0 60637   7062.000000  0    3392854.774   5970652.007   -565826.732
10 0 60637   7182.000000  0    3480420.811   5766174.963  -1460335.039
10 0 60637   7302.000000  0    3502775.874   5460097.234  -2329178.154
10 0 60637   7422.000000  0    3457861.507   5059002.423  -3157119.347
10 0 60637   7542.000000  0    3344929.496   4571155.482  -3929672.457
10 0 60637   7662.000000  0    3164576.125   4006324.326  -4633355.281
10 0 60637   7782.000000  0    2918749.330   3375577.060  -5255921.606
10 0 60637   7902.000000  0    2610728.755   2691057.960  -5786567.776
10 0 60637   8022.000000  0    2245079.993   1965748.353  -6216110.620
10 0 60637   8142.000000  0    1827583.558   1213217.901  -6537134.949
10 0 60637   8262.000000  0    1365142.166    447371.654  -6744109.330
10 0 60637   8382.000000  0     865666.901   -317802.795  -6833472.589
10 0 60637   8502.000000  0     337942.250  -1068486.198  -6803688.509
10 0 60637   8622.000000  0    -208525.207  -1791270.799  -6655267.543
10 0 60637   8742.000000  0    -763672.974  -2473392.670  -6390759.568
10 0 60637   8862.000000  0   -1317063.564  -3102953.453  -6014716.137
10 0 60637   8982.000000  0   -1858075.776  -3669125.968  -5533619.639
10 0 60637   9102.000000  0   -2376104.236  -4162341.105  -4955783.106
10 0 60637   9222.000000  0   -2860765.611  -4574454.848  -4291218.914
99